CTC1_L_00215001-01
1 55660U 24976AQ  26037.47803241  .00000000  00000+0  00000-0 0  9996
2 55660  90.0000   0.0000 0000000   0.0000   0.0000 13.42494869    14
CTC1_L_00215001-02
1 55661U 26636QE  26037.47803241  .00000000  00000+0  00000-0 0  9992
2 55661  90.0000   0.0000 0000000   0.0000  90.0000 13.42494869    14
CTC1_L_00215001-03
1 55662U 22553WP  26037.47803241  .00000000  00000+0  00000-0 0  9997
2 55662  90.0000   0.0000 0000000   0.0000 180.0000 13.42494869    15
CTC1_L_00215001-04
1 55663U 23601BC  26037.47803241  .00000000  00000+0  00000-0 0  9993
2 55663  90.0000   0.0000 0000000   0.0000 270.0000 13.42494869    16
CTC1_L_00215002-01
1 55664U 26670VF  26037.47803241  .00000000  00000+0  00000-0 0  9993
2 55664  90.0000  12.0000 0000000   0.0000  12.0000 13.42494869    14
CTC1_L_00215002-02
1 55665U 26504FX  26037.47803241  .00000000  00000+0  00000-0 0  9990
2 55665  90.0000  12.0000 0000000   0.0000 102.0000 13.42494869    15
CTC1_L_00215002-03
1 55666U 25533XB  26037.47803241  .00000000  00000+0  00000-0 0  9992
2 55666  90.0000  12.0000 0000000   0.0000 192.0000 13.42494869    15
CTC1_L_00215002-04
1 55667U 26082EI  26037.47803241  .00000000  00000+0  00000-0 0  9993
2 55667  90.0000  12.0000 0000000   0.0000 282.0000 13.42494869    16
CTC1_L_00215003-01
1 55668U 23673UG  26037.47803241  .00000000  00000+0  00000-0 0  9997
2 55668  90.0000  24.0000 0000000   0.0000  24.0000 13.42494869    14
CTC1_L_00215003-02
1 55669U 26240WX  26037.47803241  .00000000  00000+0  00000-0 0  9991
2 55669  90.0000  24.0000 0000000   0.0000 114.0000 13.42494869    15
CTC1_L_00215003-03
1 55670U 25251SY  26037.47803241  .00000000  00000+0  00000-0 0  9994
2 55670  90.0000  24.0000 0000000   0.0000 204.0000 13.42494869    17
CTC1_L_00215003-04
1 55671U 23692DL  26037.47803241  .00000000  00000+0  00000-0 0  9992
2 55671  90.0000  24.0000 0000000   0.0000 294.0000 13.42494869    17
CTC1_L_00215004-01
1 55672U 24565EZ  26037.47803241  .00000000  00000+0  00000-0 0  9993
2 55672  90.0000  36.0000 0000000   0.0000  36.0000 13.42494869    15
CTC1_L_00215004-02
1 55673U 22329XT  26037.47803241  .00000000  00000+0  00000-0 0  9990
2 55673  90.0000  36.0000 0000000   0.0000 126.0000 13.42494869    16
CTC1_L_00215004-03
1 55674U 23130ZL  26037.47803241  .00000000  00000+0  00000-0 0  9992
2 55674  90.0000  36.0000 0000000   0.0000 216.0000 13.42494869    17
CTC1_L_00215004-04
1 55675U 24308B   26037.47803241  .00000000  00000+0  00000-0 0  9991
2 55675  90.0000  36.0000 0000000   0.0000 306.0000 13.42494869    18
CTC1_L_00215005-01
1 55676U 23679XF  26037.47803241  .00000000  00000+0  00000-0 0  9992
2 55676  90.0000  48.0000 0000000   0.0000  48.0000 13.42494869    15
CTC1_L_00215005-02
1 55677U 24660ZO  26037.47803241  .00000000  00000+0  00000-0 0  9994
2 55677  90.0000  48.0000 0000000   0.0000 138.0000 13.42494869    16
CTC1_L_00215005-03
1 55678U 26985DD  26037.47803241  .00000000  00000+0  00000-0 0  9997
2 55678  90.0000  48.0000 0000000   0.0000 228.0000 13.42494869    17
CTC1_L_00215005-04
1 55679U 22959SL  26037.47803241  .00000000  00000+0  00000-0 0  9995
2 55679  90.0000  48.0000 0000000   0.0000 318.0000 13.42494869    18
CTC1_L_00215006-01
1 55680U 25273TF  26037.47803241  .00000000  00000+0  00000-0 0  9999
2 55680  90.0000  60.0000 0000000   0.0000  60.0000 13.42494869    18
CTC1_L_00215006-02
1 55681U 25145EM  26037.47803241  .00000000  00000+0  00000-0 0  9998
2 55681  90.0000  60.0000 0000000   0.0000 150.0000 13.42494869    19
CTC1_L_00215006-03
1 55682U 23936IV  26037.47803241  .00000000  00000+0  00000-0 0  9995
2 55682  90.0000  60.0000 0000000   0.0000 240.0000 13.42494869    10
CTC1_L_00215006-04
1 55683U 26757BC  26037.47803241  .00000000  00000+0  00000-0 0  9990
2 55683  90.0000  60.0000 0000000   0.0000 330.0000 13.42494869    11
CTC1_L_00215007-01
1 55684U 22361HI  26037.47803241  .00000000  00000+0  00000-0 0  9998
2 55684  90.0000  72.0000 0000000   0.0000  72.0000 13.42494869    18
CTC1_L_00215007-02
1 55685U 24235DA  26037.47803241  .00000000  00000+0  00000-0 0  9991
2 55685  90.0000  72.0000 0000000   0.0000 162.0000 13.42494869    19
CTC1_L_00215007-03
1 55686U 24549BA  26037.47803241  .00000000  00000+0  00000-0 0  9990
2 55686  90.0000  72.0000 0000000   0.0000 252.0000 13.42494869    10
CTC1_L_00215007-04
1 55687U 23072OO  26037.47803241  .00000000  00000+0  00000-0 0  9991
2 55687  90.0000  72.0000 0000000   0.0000 342.0000 13.42494869    11
CTC1_L_00215008-01
1 55688U 22493WG  26037.47803241  .00000000  00000+0  00000-0 0  9998
2 55688  90.0000  84.0000 0000000   0.0000  84.0000 13.42494869    18
CTC1_L_00215008-02
1 55689U 25974LL  26037.47803241  .00000000  00000+0  00000-0 0  9996
2 55689  90.0000  84.0000 0000000   0.0000 174.0000 13.42494869    19
CTC1_L_00215008-03
1 55690U 26011JG  26037.47803241  .00000000  00000+0  00000-0 0  9991
2 55690  90.0000  84.0000 0000000   0.0000 264.0000 13.42494869    11
CTC1_L_00215008-04
1 55691U 23741OW  26037.47803241  .00000000  00000+0  00000-0 0  9999
2 55691  90.0000  84.0000 0000000   0.0000 354.0000 13.42494869    12
CTC1_L_00215009-01
1 55692U 26585PT  26037.47803241  .00000000  00000+0  00000-0 0  9999
2 55692  90.0000  96.0000 0000000   0.0000  96.0000 13.42494869    19
CTC1_L_00215009-02
1 55693U 26654WO  26037.47803241  .00000000  00000+0  00000-0 0  9997
2 55693  90.0000  96.0000 0000000   0.0000 186.0000 13.42494869    10
CTC1_L_00215009-03
1 55694U 22177ZY  26037.47803241  .00000000  00000+0  00000-0 0  9994
2 55694  90.0000  96.0000 0000000   0.0000 276.0000 13.42494869    11
CTC1_L_00215009-04
1 55695U 25063AW  26037.47803241  .00000000  00000+0  00000-0 0  9992
2 55695  90.0000  96.0000 0000000   0.0000   6.0000 13.42494869    13
CTC1_L_00215010-01
1 55696U 25099FD  26037.47803241  .00000000  00000+0  00000-0 0  9992
2 55696  90.0000 108.0000 0000000   0.0000 108.0000 13.42494869    11
CTC1_L_00215010-02
1 55697U 23334TM  26037.47803241  .00000000  00000+0  00000-0 0  9993
2 55697  90.0000 108.0000 0000000   0.0000 198.0000 13.42494869    11
CTC1_L_00215010-03
1 55698U 24389WW  26037.47803241  .00000000  00000+0  00000-0 0  9995
2 55698  90.0000 108.0000 0000000   0.0000 288.0000 13.42494869    12
CTC1_L_00215010-04
1 55699U 22535CQ  26037.47803241  .00000000  00000+0  00000-0 0  9997
2 55699  90.0000 108.0000 0000000   0.0000  18.0000 13.42494869    14
CTC1_L_00215011-01
1 55700U 22865KC  26037.47803241  .00000000  00000+0  00000-0 0  9996
2 55700  90.0000 120.0000 0000000   0.0000 120.0000 13.42494869    15
CTC1_L_00215011-02
1 55701U 23231UL  26037.47803241  .00000000  00000+0  00000-0 0  9995
2 55701  90.0000 120.0000 0000000   0.0000 210.0000 13.42494869    16
CTC1_L_00215011-03
1 55702U 24745XC  26037.47803241  .00000000  00000+0  00000-0 0  9997
2 55702  90.0000 120.0000 0000000   0.0000 300.0000 13.42494869    17
CTC1_L_00215011-04
1 55703U 23762FZ  26037.47803241  .00000000  00000+0  00000-0 0  9996
2 55703  90.0000 120.0000 0000000   0.0000  30.0000 13.42494869    18
CTC1_L_00215012-01
1 55704U 23007XT  26037.47803241  .00000000  00000+0  00000-0 0  9999
2 55704  90.0000 132.0000 0000000   0.0000 132.0000 13.42494869    15
CTC1_L_00215012-02
1 55705U 26587UT  26037.47803241  .00000000  00000+0  00000-0 0  9996
2 55705  90.0000 132.0000 0000000   0.0000 222.0000 13.42494869    16
CTC1_L_00215012-03
1 55706U 25959ZL  26037.47803241  .00000000  00000+0  00000-0 0  9999
2 55706  90.0000 132.0000 0000000   0.0000 312.0000 13.42494869    17
CTC1_L_00215012-04
1 55707U 25364VS  26037.47803241  .00000000  00000+0  00000-0 0  9990
2 55707  90.0000 132.0000 0000000   0.0000  42.0000 13.42494869    18
CTC1_L_00215013-01
1 55708U 23754MU  26037.47803241  .00000000  00000+0  00000-0 0  9992
2 55708  90.0000 144.0000 0000000   0.0000 144.0000 13.42494869    15
CTC1_L_00215013-02
1 55709U 25442TO  26037.47803241  .00000000  00000+0  00000-0 0  9999
2 55709  90.0000 144.0000 0000000   0.0000 234.0000 13.42494869    16
CTC1_L_00215013-03
1 55710U 26113UA  26037.47803241  .00000000  00000+0  00000-0 0  9997
2 55710  90.0000 144.0000 0000000   0.0000 324.0000 13.42494869    18
CTC1_L_00215013-04
1 55711U 23704GL  26037.47803241  .00000000  00000+0  00000-0 0  9991
2 55711  90.0000 144.0000 0000000   0.0000  54.0000 13.42494869    19
CTC1_L_00215014-01
1 55712U 22362GC  26037.47803241  .00000000  00000+0  00000-0 0  9991
2 55712  90.0000 156.0000 0000000   0.0000 156.0000 13.42494869    16
CTC1_L_00215014-02
1 55713U 26632EP  26037.47803241  .00000000  00000+0  00000-0 0  9996
2 55713  90.0000 156.0000 0000000   0.0000 246.0000 13.42494869    17
CTC1_L_00215014-03
1 55714U 22139YK  26037.47803241  .00000000  00000+0  00000-0 0  9995
2 55714  90.0000 156.0000 0000000   0.0000 336.0000 13.42494869    18
CTC1_L_00215014-04
1 55715U 24692VC  26037.47803241  .00000000  00000+0  00000-0 0  9992
2 55715  90.0000 156.0000 0000000   0.0000  66.0000 13.42494869    19
CTC1_L_00215015-01
1 55716U 22783ZZ  26037.47803241  .00000000  00000+0  00000-0 0  9992
2 55716  90.0000 168.0000 0000000   0.0000 168.0000 13.42494869    16
CTC1_L_00215015-02
1 55717U 24475FS  26037.47803241  .00000000  00000+0  00000-0 0  9993
2 55717  90.0000 168.0000 0000000   0.0000 258.0000 13.42494869    17
CTC1_L_00215015-03
1 55718U 24062Z   26037.47803241  .00000000  00000+0  00000-0 0  9996
2 55718  90.0000 168.0000 0000000   0.0000 348.0000 13.42494869    18
CTC1_L_00215015-04
1 55719U 25756UO  26037.47803241  .00000000  00000+0  00000-0 0  9998
2 55719  90.0000 168.0000 0000000   0.0000  78.0000 13.42494869    19
CTC1_L_00215016-01
1 55720U 23625WP  26037.47803241  .00000000  00000+0  00000-0 0  9993
2 55720  90.0000 180.0000 0000000   0.0000 180.0000 13.42494869    19
CTC1_L_00215016-02
1 55721U 23485OS  26037.47803241  .00000000  00000+0  00000-0 0  9998
2 55721  90.0000 180.0000 0000000   0.0000 270.0000 13.42494869    10
